{
  "_note": "PLACEHOLDER DATA - このファイルはプレースホルダーです。各地区のポリゴンは概略的な代表点周辺の小さな矩形で、実際の境界データではありません。実際のポリゴンデータは国土数値情報（https://nlftp.mlit.go.jp/）等から取得して差し替えてください。",
  "type": "FeatureCollection",
  "features": [
    {
      "type": "Feature",
      "properties": {
        "district_number": 1,
        "district_name": "番町"
      },
      "geometry": {
        "type": "Polygon",
        "coordinates": [[[132.7600, 33.8430], [132.7650, 33.8430], [132.7650, 33.8470], [132.7600, 33.8470], [132.7600, 33.8430]]]
      }
    },
    {
      "type": "Feature",
      "properties": {
        "district_number": 2,
        "district_name": "東雲"
      },
      "geometry": {
        "type": "Polygon",
        "coordinates": [[[132.7700, 33.8430], [132.7750, 33.8430], [132.7750, 33.8470], [132.7700, 33.8470], [132.7700, 33.8430]]]
      }
    },
    {
      "type": "Feature",
      "properties": {
        "district_number": 3,
        "district_name": "八坂"
      },
      "geometry": {
        "type": "Polygon",
        "coordinates": [[[132.7550, 33.8380], [132.7600, 33.8380], [132.7600, 33.8420], [132.7550, 33.8420], [132.7550, 33.8380]]]
      }
    },
    {
      "type": "Feature",
      "properties": {
        "district_number": 4,
        "district_name": "素鵞"
      },
      "geometry": {
        "type": "Polygon",
        "coordinates": [[[132.7750, 33.8330], [132.7800, 33.8330], [132.7800, 33.8370], [132.7750, 33.8370], [132.7750, 33.8330]]]
      }
    },
    {
      "type": "Feature",
      "properties": {
        "district_number": 5,
        "district_name": "雄郡"
      },
      "geometry": {
        "type": "Polygon",
        "coordinates": [[[132.7600, 33.8280], [132.7650, 33.8280], [132.7650, 33.8320], [132.7600, 33.8320], [132.7600, 33.8280]]]
      }
    },
    {
      "type": "Feature",
      "properties": {
        "district_number": 6,
        "district_name": "新玉"
      },
      "geometry": {
        "type": "Polygon",
        "coordinates": [[[132.7500, 33.8380], [132.7550, 33.8380], [132.7550, 33.8420], [132.7500, 33.8420], [132.7500, 33.8380]]]
      }
    },
    {
      "type": "Feature",
      "properties": {
        "district_number": 7,
        "district_name": "味酒"
      },
      "geometry": {
        "type": "Polygon",
        "coordinates": [[[132.7450, 33.8430], [132.7500, 33.8430], [132.7500, 33.8470], [132.7450, 33.8470], [132.7450, 33.8430]]]
      }
    },
    {
      "type": "Feature",
      "properties": {
        "district_number": 8,
        "district_name": "清水"
      },
      "geometry": {
        "type": "Polygon",
        "coordinates": [[[132.7500, 33.8480], [132.7550, 33.8480], [132.7550, 33.8520], [132.7500, 33.8520], [132.7500, 33.8480]]]
      }
    },
    {
      "type": "Feature",
      "properties": {
        "district_number": 9,
        "district_name": "桑原"
      },
      "geometry": {
        "type": "Polygon",
        "coordinates": [[[132.7850, 33.8380], [132.7900, 33.8380], [132.7900, 33.8420], [132.7850, 33.8420], [132.7850, 33.8380]]]
      }
    },
    {
      "type": "Feature",
      "properties": {
        "district_number": 10,
        "district_name": "道後"
      },
      "geometry": {
        "type": "Polygon",
        "coordinates": [[[132.7850, 33.8480], [132.7900, 33.8480], [132.7900, 33.8520], [132.7850, 33.8520], [132.7850, 33.8480]]]
      }
    },
    {
      "type": "Feature",
      "properties": {
        "district_number": 11,
        "district_name": "味生"
      },
      "geometry": {
        "type": "Polygon",
        "coordinates": [[[132.7300, 33.8330], [132.7350, 33.8330], [132.7350, 33.8370], [132.7300, 33.8370], [132.7300, 33.8330]]]
      }
    },
    {
      "type": "Feature",
      "properties": {
        "district_number": 12,
        "district_name": "生石"
      },
      "geometry": {
        "type": "Polygon",
        "coordinates": [[[132.7350, 33.8230], [132.7400, 33.8230], [132.7400, 33.8270], [132.7350, 33.8270], [132.7350, 33.8230]]]
      }
    },
    {
      "type": "Feature",
      "properties": {
        "district_number": 13,
        "district_name": "垣生"
      },
      "geometry": {
        "type": "Polygon",
        "coordinates": [[[132.7250, 33.8180], [132.7300, 33.8180], [132.7300, 33.8220], [132.7250, 33.8220], [132.7250, 33.8180]]]
      }
    },
    {
      "type": "Feature",
      "properties": {
        "district_number": 14,
        "district_name": "宮前"
      },
      "geometry": {
        "type": "Polygon",
        "coordinates": [[[132.7200, 33.8380], [132.7250, 33.8380], [132.7250, 33.8420], [132.7200, 33.8420], [132.7200, 33.8380]]]
      }
    },
    {
      "type": "Feature",
      "properties": {
        "district_number": 15,
        "district_name": "三津浜"
      },
      "geometry": {
        "type": "Polygon",
        "coordinates": [[[132.7150, 33.8430], [132.7200, 33.8430], [132.7200, 33.8470], [132.7150, 33.8470], [132.7150, 33.8430]]]
      }
    },
    {
      "type": "Feature",
      "properties": {
        "district_number": 16,
        "district_name": "高浜"
      },
      "geometry": {
        "type": "Polygon",
        "coordinates": [[[132.7050, 33.8480], [132.7100, 33.8480], [132.7100, 33.8520], [132.7050, 33.8520], [132.7050, 33.8480]]]
      }
    },
    {
      "type": "Feature",
      "properties": {
        "district_number": 17,
        "district_name": "久枝"
      },
      "geometry": {
        "type": "Polygon",
        "coordinates": [[[132.7300, 33.8530], [132.7350, 33.8530], [132.7350, 33.8570], [132.7300, 33.8570], [132.7300, 33.8530]]]
      }
    },
    {
      "type": "Feature",
      "properties": {
        "district_number": 18,
        "district_name": "潮見"
      },
      "geometry": {
        "type": "Polygon",
        "coordinates": [[[132.7250, 33.8580], [132.7300, 33.8580], [132.7300, 33.8620], [132.7250, 33.8620], [132.7250, 33.8580]]]
      }
    },
    {
      "type": "Feature",
      "properties": {
        "district_number": 19,
        "district_name": "和気"
      },
      "geometry": {
        "type": "Polygon",
        "coordinates": [[[132.7100, 33.8580], [132.7150, 33.8580], [132.7150, 33.8620], [132.7100, 33.8620], [132.7100, 33.8580]]]
      }
    },
    {
      "type": "Feature",
      "properties": {
        "district_number": 20,
        "district_name": "堀江"
      },
      "geometry": {
        "type": "Polygon",
        "coordinates": [[[132.7150, 33.8680], [132.7200, 33.8680], [132.7200, 33.8720], [132.7150, 33.8720], [132.7150, 33.8680]]]
      }
    },
    {
      "type": "Feature",
      "properties": {
        "district_number": 21,
        "district_name": "余土"
      },
      "geometry": {
        "type": "Polygon",
        "coordinates": [[[132.7600, 33.8180], [132.7650, 33.8180], [132.7650, 33.8220], [132.7600, 33.8220], [132.7600, 33.8180]]]
      }
    },
    {
      "type": "Feature",
      "properties": {
        "district_number": 22,
        "district_name": "由良"
      },
      "geometry": {
        "type": "Polygon",
        "coordinates": [[[132.7450, 33.8180], [132.7500, 33.8180], [132.7500, 33.8220], [132.7450, 33.8220], [132.7450, 33.8180]]]
      }
    },
    {
      "type": "Feature",
      "properties": {
        "district_number": 23,
        "district_name": "泊"
      },
      "geometry": {
        "type": "Polygon",
        "coordinates": [[[132.7450, 33.8130], [132.7500, 33.8130], [132.7500, 33.8170], [132.7450, 33.8170], [132.7450, 33.8130]]]
      }
    },
    {
      "type": "Feature",
      "properties": {
        "district_number": 24,
        "district_name": "久米"
      },
      "geometry": {
        "type": "Polygon",
        "coordinates": [[[132.7950, 33.8330], [132.8000, 33.8330], [132.8000, 33.8370], [132.7950, 33.8370], [132.7950, 33.8330]]]
      }
    },
    {
      "type": "Feature",
      "properties": {
        "district_number": 25,
        "district_name": "湯山"
      },
      "geometry": {
        "type": "Polygon",
        "coordinates": [[[132.8050, 33.8530], [132.8100, 33.8530], [132.8100, 33.8570], [132.8050, 33.8570], [132.8050, 33.8530]]]
      }
    },
    {
      "type": "Feature",
      "properties": {
        "district_number": 26,
        "district_name": "日浦"
      },
      "geometry": {
        "type": "Polygon",
        "coordinates": [[[132.8150, 33.8630], [132.8200, 33.8630], [132.8200, 33.8670], [132.8150, 33.8670], [132.8150, 33.8630]]]
      }
    },
    {
      "type": "Feature",
      "properties": {
        "district_number": 27,
        "district_name": "伊台"
      },
      "geometry": {
        "type": "Polygon",
        "coordinates": [[[132.7900, 33.8580], [132.7950, 33.8580], [132.7950, 33.8620], [132.7900, 33.8620], [132.7900, 33.8580]]]
      }
    },
    {
      "type": "Feature",
      "properties": {
        "district_number": 28,
        "district_name": "五明"
      },
      "geometry": {
        "type": "Polygon",
        "coordinates": [[[132.7800, 33.8630], [132.7850, 33.8630], [132.7850, 33.8670], [132.7800, 33.8670], [132.7800, 33.8630]]]
      }
    },
    {
      "type": "Feature",
      "properties": {
        "district_number": 29,
        "district_name": "小野"
      },
      "geometry": {
        "type": "Polygon",
        "coordinates": [[[132.8100, 33.8280], [132.8150, 33.8280], [132.8150, 33.8320], [132.8100, 33.8320], [132.8100, 33.8280]]]
      }
    },
    {
      "type": "Feature",
      "properties": {
        "district_number": 30,
        "district_name": "浮穴"
      },
      "geometry": {
        "type": "Polygon",
        "coordinates": [[[132.7800, 33.8130], [132.7850, 33.8130], [132.7850, 33.8170], [132.7800, 33.8170], [132.7800, 33.8130]]]
      }
    },
    {
      "type": "Feature",
      "properties": {
        "district_number": 31,
        "district_name": "石井"
      },
      "geometry": {
        "type": "Polygon",
        "coordinates": [[[132.7750, 33.8180], [132.7800, 33.8180], [132.7800, 33.8220], [132.7750, 33.8220], [132.7750, 33.8180]]]
      }
    },
    {
      "type": "Feature",
      "properties": {
        "district_number": 32,
        "district_name": "荏原"
      },
      "geometry": {
        "type": "Polygon",
        "coordinates": [[[132.7900, 33.8080], [132.7950, 33.8080], [132.7950, 33.8120], [132.7900, 33.8120], [132.7900, 33.8080]]]
      }
    },
    {
      "type": "Feature",
      "properties": {
        "district_number": 33,
        "district_name": "坂本"
      },
      "geometry": {
        "type": "Polygon",
        "coordinates": [[[132.8000, 33.8030], [132.8050, 33.8030], [132.8050, 33.8070], [132.8000, 33.8070], [132.8000, 33.8030]]]
      }
    },
    {
      "type": "Feature",
      "properties": {
        "district_number": 61,
        "district_name": "浅海"
      },
      "geometry": {
        "type": "Polygon",
        "coordinates": [[[132.8200, 33.9480], [132.8250, 33.9480], [132.8250, 33.9520], [132.8200, 33.9520], [132.8200, 33.9480]]]
      }
    },
    {
      "type": "Feature",
      "properties": {
        "district_number": 62,
        "district_name": "立岩"
      },
      "geometry": {
        "type": "Polygon",
        "coordinates": [[[132.8050, 33.9380], [132.8100, 33.9380], [132.8100, 33.9420], [132.8050, 33.9420], [132.8050, 33.9380]]]
      }
    },
    {
      "type": "Feature",
      "properties": {
        "district_number": 63,
        "district_name": "難波"
      },
      "geometry": {
        "type": "Polygon",
        "coordinates": [[[132.7900, 33.9280], [132.7950, 33.9280], [132.7950, 33.9320], [132.7900, 33.9320], [132.7900, 33.9280]]]
      }
    },
    {
      "type": "Feature",
      "properties": {
        "district_number": 64,
        "district_name": "正岡"
      },
      "geometry": {
        "type": "Polygon",
        "coordinates": [[[132.7800, 33.9330], [132.7850, 33.9330], [132.7850, 33.9370], [132.7800, 33.9370], [132.7800, 33.9330]]]
      }
    },
    {
      "type": "Feature",
      "properties": {
        "district_number": 65,
        "district_name": "北条"
      },
      "geometry": {
        "type": "Polygon",
        "coordinates": [[[132.7700, 33.9230], [132.7750, 33.9230], [132.7750, 33.9270], [132.7700, 33.9270], [132.7700, 33.9230]]]
      }
    },
    {
      "type": "Feature",
      "properties": {
        "district_number": 66,
        "district_name": "河野"
      },
      "geometry": {
        "type": "Polygon",
        "coordinates": [[[132.7550, 33.9330], [132.7600, 33.9330], [132.7600, 33.9370], [132.7550, 33.9370], [132.7550, 33.9330]]]
      }
    },
    {
      "type": "Feature",
      "properties": {
        "district_number": 67,
        "district_name": "粟井"
      },
      "geometry": {
        "type": "Polygon",
        "coordinates": [[[132.7400, 33.9380], [132.7450, 33.9380], [132.7450, 33.9420], [132.7400, 33.9420], [132.7400, 33.9380]]]
      }
    },
    {
      "type": "Feature",
      "properties": {
        "district_number": 81,
        "district_name": "睦野"
      },
      "geometry": {
        "type": "Polygon",
        "coordinates": [[[132.6100, 33.9480], [132.6150, 33.9480], [132.6150, 33.9520], [132.6100, 33.9520], [132.6100, 33.9480]]]
      }
    },
    {
      "type": "Feature",
      "properties": {
        "district_number": 82,
        "district_name": "東中島"
      },
      "geometry": {
        "type": "Polygon",
        "coordinates": [[[132.5950, 33.9580], [132.6000, 33.9580], [132.6000, 33.9620], [132.5950, 33.9620], [132.5950, 33.9580]]]
      }
    },
    {
      "type": "Feature",
      "properties": {
        "district_number": 83,
        "district_name": "西中島"
      },
      "geometry": {
        "type": "Polygon",
        "coordinates": [[[132.5800, 33.9580], [132.5850, 33.9580], [132.5850, 33.9620], [132.5800, 33.9620], [132.5800, 33.9580]]]
      }
    },
    {
      "type": "Feature",
      "properties": {
        "district_number": 84,
        "district_name": "神和"
      },
      "geometry": {
        "type": "Polygon",
        "coordinates": [[[132.5650, 33.9480], [132.5700, 33.9480], [132.5700, 33.9520], [132.5650, 33.9520], [132.5650, 33.9480]]]
      }
    }
  ]
}
